CCSDS_OMM_VERS = 2.0
CREATION_DATE  = 
ORIGINATOR     = 

OBJECT_NAME    = DELTA 2 R/B(1)
OBJECT_ID      = 1990-008B
CENTER_NAME    = EARTH
REF_FRAME      = TEME
TIME_SYSTEM    = UTC
MEAN_ELEMENT_THEORY = SGP/SGP4

EPOCH          = 2025-12-19T15:54:11.327904
MEAN_MOTION    = 15.45752274
ECCENTRICITY   = .011123
INCLINATION    = 35.6080
RA_OF_ASC_NODE = 335.8092
ARG_OF_PERICENTER = 241.4379
MEAN_ANOMALY   = 117.5121

EPHEMERIS_TYPE = 0
CLASSIFICATION_TYPE = U
NORAD_CAT_ID   = 20453
ELEMENT_SET_NO = 999
REV_AT_EPOCH   = 91370
BSTAR          = .49464E-3
MEAN_MOTION_DOT = .31465E-3
MEAN_MOTION_DDOT = 0

CCSDS_OMM_VERS = 2.0
CREATION_DATE  = 
ORIGINATOR     = 

OBJECT_NAME    = COSMOS 2058
OBJECT_ID      = 1990-010A
CENTER_NAME    = EARTH
REF_FRAME      = TEME
TIME_SYSTEM    = UTC
MEAN_ELEMENT_THEORY = SGP/SGP4

EPOCH          = 2025-12-19T18:43:03.010080
MEAN_MOTION    = 15.10536455
ECCENTRICITY   = .0008893
INCLINATION    = 82.4695
RA_OF_ASC_NODE = 126.1057
ARG_OF_PERICENTER = 244.5566
MEAN_ANOMALY   = 115.4744

EPHEMERIS_TYPE = 0
CLASSIFICATION_TYPE = U
NORAD_CAT_ID   = 20465
ELEMENT_SET_NO = 999
REV_AT_EPOCH   = 93017
BSTAR          = .23526E-3
MEAN_MOTION_DOT = .3909E-4
MEAN_MOTION_DDOT = 0

CCSDS_OMM_VERS = 2.0
CREATION_DATE  = 
ORIGINATOR     = 

OBJECT_NAME    = SL-14 R/B
OBJECT_ID      = 1990-010B
CENTER_NAME    = EARTH
REF_FRAME      = TEME
TIME_SYSTEM    = UTC
MEAN_ELEMENT_THEORY = SGP/SGP4

EPOCH          = 2025-12-19T08:32:08.204064
MEAN_MOTION    = 14.83477109
ECCENTRICITY   = .0019195
INCLINATION    = 82.5019
RA_OF_ASC_NODE = 342.8331
ARG_OF_PERICENTER = 200.3246
MEAN_ANOMALY   = 159.7208

EPHEMERIS_TYPE = 0
CLASSIFICATION_TYPE = U
NORAD_CAT_ID   = 20466
ELEMENT_SET_NO = 999
REV_AT_EPOCH   = 91657
BSTAR          = .39153E-4
MEAN_MOTION_DOT = .346E-5
MEAN_MOTION_DDOT = 0

CCSDS_OMM_VERS = 2.0
CREATION_DATE  = 
ORIGINATOR     = 

OBJECT_NAME    = SL-14 R/B
OBJECT_ID      = 1990-018B
CENTER_NAME    = EARTH
REF_FRAME      = TEME
TIME_SYSTEM    = UTC
MEAN_ELEMENT_THEORY = SGP/SGP4

EPOCH          = 2025-12-19T20:04:18.999264
MEAN_MOTION    = 14.82053532
ECCENTRICITY   = .0016389
INCLINATION    = 82.5215
RA_OF_ASC_NODE = 297.7317
ARG_OF_PERICENTER = 0.5568
MEAN_ANOMALY   = 359.5661

EPHEMERIS_TYPE = 0
CLASSIFICATION_TYPE = U
NORAD_CAT_ID   = 20511
ELEMENT_SET_NO = 999
REV_AT_EPOCH   = 91075
BSTAR          = .43682E-4
MEAN_MOTION_DOT = .371E-5
MEAN_MOTION_DDOT = 0

CCSDS_OMM_VERS = 2.0
CREATION_DATE  = 
ORIGINATOR     = 

OBJECT_NAME    = HST
OBJECT_ID      = 1990-037B
CENTER_NAME    = EARTH
REF_FRAME      = TEME
TIME_SYSTEM    = UTC
MEAN_ELEMENT_THEORY = SGP/SGP4

EPOCH          = 2025-12-18T00:24:16.230528
MEAN_MOTION    = 15.28122531
ECCENTRICITY   = .00019515
INCLINATION    = 28.4674
RA_OF_ASC_NODE = 236.5696
ARG_OF_PERICENTER = 306.2372
MEAN_ANOMALY   = 53.8043

EPHEMERIS_TYPE = 0
CLASSIFICATION_TYPE = U
NORAD_CAT_ID   = 20580
ELEMENT_SET_NO = 999
REV_AT_EPOCH   = 76080
BSTAR          = .19129847E-3
MEAN_MOTION_DOT = .5621E-4
MEAN_MOTION_DDOT = 0

CCSDS_OMM_VERS = 2.0
CREATION_DATE  = 
ORIGINATOR     = 

OBJECT_NAME    = SL-16 R/B
OBJECT_ID      = 1990-046B
CENTER_NAME    = EARTH
REF_FRAME      = TEME
TIME_SYSTEM    = UTC
MEAN_ELEMENT_THEORY = SGP/SGP4

EPOCH          = 2025-12-19T11:04:49.797408
MEAN_MOTION    = 14.14999291
ECCENTRICITY   = .0011991
INCLINATION    = 70.9993
RA_OF_ASC_NODE = 106.4053
ARG_OF_PERICENTER = 61.3446
MEAN_ANOMALY   = 298.8881

EPHEMERIS_TYPE = 0
CLASSIFICATION_TYPE = U
NORAD_CAT_ID   = 20625
ELEMENT_SET_NO = 999
REV_AT_EPOCH   = 83704
BSTAR          = -.12211E-3
MEAN_MOTION_DOT = -.284E-5
MEAN_MOTION_DDOT = 0

CCSDS_OMM_VERS = 2.0
CREATION_DATE  = 
ORIGINATOR     = 

OBJECT_NAME    = COSMOS 2084
OBJECT_ID      = 1990-055A
CENTER_NAME    = EARTH
REF_FRAME      = TEME
TIME_SYSTEM    = UTC
MEAN_ELEMENT_THEORY = SGP/SGP4

EPOCH          = 2025-12-19T17:50:56.224320
MEAN_MOTION    = 15.05058322
ECCENTRICITY   = .0030594
INCLINATION    = 62.7899
RA_OF_ASC_NODE = 248.1277
ARG_OF_PERICENTER = 175.6163
MEAN_ANOMALY   = 184.5211

EPHEMERIS_TYPE = 0
CLASSIFICATION_TYPE = U
NORAD_CAT_ID   = 20663
ELEMENT_SET_NO = 999
REV_AT_EPOCH   = 92428
BSTAR          = .14443E-3
MEAN_MOTION_DOT = .1876E-4
MEAN_MOTION_DDOT = 0

CCSDS_OMM_VERS = 2.0
CREATION_DATE  = 
ORIGINATOR     = 

OBJECT_NAME    = SL-6 R/B(2)
OBJECT_ID      = 1990-055D
CENTER_NAME    = EARTH
REF_FRAME      = TEME
TIME_SYSTEM    = UTC
MEAN_ELEMENT_THEORY = SGP/SGP4

EPOCH          = 2025-12-19T16:28:07.252320
MEAN_MOTION    = 15.03103145
ECCENTRICITY   = .0013476
INCLINATION    = 62.7810
RA_OF_ASC_NODE = 165.8120
ARG_OF_PERICENTER = 313.4492
MEAN_ANOMALY   = 46.5485

EPHEMERIS_TYPE = 0
CLASSIFICATION_TYPE = U
NORAD_CAT_ID   = 20666
ELEMENT_SET_NO = 999
REV_AT_EPOCH   = 92616
BSTAR          = .12207E-3
MEAN_MOTION_DOT = .1459E-4
MEAN_MOTION_DDOT = 0

CCSDS_OMM_VERS = 2.0
CREATION_DATE  = 
ORIGINATOR     = 

OBJECT_NAME    = SL-8 R/B
OBJECT_ID      = 1990-078B
CENTER_NAME    = EARTH
REF_FRAME      = TEME
TIME_SYSTEM    = UTC
MEAN_ELEMENT_THEORY = SGP/SGP4

EPOCH          = 2025-12-19T20:50:19.005792
MEAN_MOTION    = 14.86203184
ECCENTRICITY   = .0370851
INCLINATION    = 82.9047
RA_OF_ASC_NODE = 322.9273
ARG_OF_PERICENTER = 281.9111
MEAN_ANOMALY   = 74.0759

EPHEMERIS_TYPE = 0
CLASSIFICATION_TYPE = U
NORAD_CAT_ID   = 20775
ELEMENT_SET_NO = 999
REV_AT_EPOCH   = 79743
BSTAR          = .43122E-3
MEAN_MOTION_DOT = .13953E-3
MEAN_MOTION_DDOT = 0

CCSDS_OMM_VERS = 2.0
CREATION_DATE  = 
ORIGINATOR     = 

OBJECT_NAME    = SL-8 R/B
OBJECT_ID      = 1991-006B
CENTER_NAME    = EARTH
REF_FRAME      = TEME
TIME_SYSTEM    = UTC
MEAN_ELEMENT_THEORY = SGP/SGP4

EPOCH          = 2025-12-19T05:27:49.207968
MEAN_MOTION    = 13.77491139
ECCENTRICITY   = .0021181
INCLINATION    = 82.9421
RA_OF_ASC_NODE = 229.8871
ARG_OF_PERICENTER = 260.5264
MEAN_ANOMALY   = 220.8886

EPHEMERIS_TYPE = 0
CLASSIFICATION_TYPE = U
NORAD_CAT_ID   = 21088
ELEMENT_SET_NO = 999
REV_AT_EPOCH   = 75299
BSTAR          = .91012E-4
MEAN_MOTION_DOT = .106E-5
MEAN_MOTION_DDOT = 0

CCSDS_OMM_VERS = 2.0
CREATION_DATE  = 
ORIGINATOR     = 

OBJECT_NAME    = OKEAN-3
OBJECT_ID      = 1991-039A
CENTER_NAME    = EARTH
REF_FRAME      = TEME
TIME_SYSTEM    = UTC
MEAN_ELEMENT_THEORY = SGP/SGP4

EPOCH          = 2025-12-19T14:25:06.049344
MEAN_MOTION    = 15.04163296
ECCENTRICITY   = .0013436
INCLINATION    = 82.5178
RA_OF_ASC_NODE = 54.4073
ARG_OF_PERICENTER = 239.9462
MEAN_ANOMALY   = 120.0432

EPHEMERIS_TYPE = 0
CLASSIFICATION_TYPE = U
NORAD_CAT_ID   = 21397
ELEMENT_SET_NO = 999
REV_AT_EPOCH   = 85299
BSTAR          = .15833E-3
MEAN_MOTION_DOT = .2228E-4
MEAN_MOTION_DDOT = 0

CCSDS_OMM_VERS = 2.0
CREATION_DATE  = 
ORIGINATOR     = 

OBJECT_NAME    = COSMOS 2151
OBJECT_ID      = 1991-042A
CENTER_NAME    = EARTH
REF_FRAME      = TEME
TIME_SYSTEM    = UTC
MEAN_ELEMENT_THEORY = SGP/SGP4

EPOCH          = 2025-12-19T19:53:59.295264
MEAN_MOTION    = 14.99711206
ECCENTRICITY   = .0011972
INCLINATION    = 82.4962
RA_OF_ASC_NODE = 160.6712
ARG_OF_PERICENTER = 335.2628
MEAN_ANOMALY   = 24.8020

EPHEMERIS_TYPE = 0
CLASSIFICATION_TYPE = U
NORAD_CAT_ID   = 21422
ELEMENT_SET_NO = 999
REV_AT_EPOCH   = 85122
BSTAR          = .11559E-3
MEAN_MOTION_DOT = .1454E-4
MEAN_MOTION_DDOT = 0

