DELTA 2 R/B(1)          
1 20453U 90008B   25353.66263111  .00031465  00000+0  49464-3 0  9993
2 20453  35.6080 335.8092 0111230 241.4379 117.5121 15.45752274913706
COSMOS 2058             
1 20465U 90010A   25353.77989595  .00003909  00000+0  23526-3 0  9995
2 20465  82.4695 126.1057 0008893 244.5566 115.4744 15.10536455930176
SL-14 R/B               
1 20466U 90010B   25353.35565051  .00000346  00000+0  39153-4 0  9993
2 20466  82.5019 342.8331 0019195 200.3246 159.7208 14.83477109916575
SL-14 R/B               
1 20511U 90018B   25353.83633101  .00000371  00000+0  43682-4 0  9997
2 20511  82.5215 297.7317 0016389   0.5568 359.5661 14.82053532910751
HST                     
1 20580U 90037B   25352.01685452  .00005621  00000+0  19130-3 0  9992
2 20580  28.4674 236.5696 0001951 306.2372  53.8043 15.28122531760808
SL-16 R/B               
1 20625U 90046B   25353.46168747 -.00000284  00000+0 -12211-3 0  9990
2 20625  70.9993 106.4053 0011991  61.3446 298.8881 14.14999291837043
COSMOS 2084             
1 20663U 90055A   25353.74370630  .00001876  00000+0  14443-3 0  9994
2 20663  62.7899 248.1277 0030594 175.6163 184.5211 15.05058322924289
SL-6 R/B(2)             
1 20666U 90055D   25353.68619505  .00001459  00000+0  12207-3 0  9990
2 20666  62.7810 165.8120 0013476 313.4492  46.5485 15.03103145926165
SL-8 R/B                
1 20775U 90078B   25353.86827553  .00013953  00000+0  43122-3 0  9992
2 20775  82.9047 322.9273 0370851 281.9111  74.0759 14.86203184797437
SL-8 R/B                
1 21088U 91006B   25353.22765287  .00000106  00000+0  91012-4 0  9995
2 21088  82.9421 229.8871 0021181 260.5264 220.8886 13.77491139752993
OKEAN-3                 
1 21397U 91039A   25353.60076446  .00002228  00000+0  15833-3 0  9991
2 21397  82.5178  54.4073 0013436 239.9462 120.0432 15.04163296852992
COSMOS 2151             
1 21422U 91042A   25353.82915851  .00001454  00000+0  11559-3 0  9991
2 21422  82.4962 160.6712 0011972 335.2628  24.8020 14.99711206851220
